[{"OBJECT_NAME":"SHUNTIAN ","OBJECT_ID":"2019-093H","EPOCH":"2026-03-09T22:37:28.644960","MEAN_MOTION":14.94616116,"ECCENTRICITY":0.00128401,"INCLINATION":97.8015,"RA_OF_ASC_NODE":157.6565,"ARG_OF_PERICENTER":41.7431,"MEAN_ANOMALY":318.4767,"EPHEMERIS_TYPE":0,"CLASSIFICATION_TYPE":"U","NORAD_CAT_ID":44886,"ELEMENT_SET_NO":999,"REV_AT_EPOCH":33735,"BSTAR":0.00022413276,"MEAN_MOTION_DOT":2.372e-5,"MEAN_MOTION_DDOT":0},{"OBJECT_NAME":"STARLINK-34644","OBJECT_ID":"2025-150Y","EPOCH":"2026-03-09T14:53:29.402016","MEAN_MOTION":14.98332521,"ECCENTRICITY":0.0003351,"INCLINATION":70.002,"RA_OF_ASC_NODE":134.6954,"ARG_OF_PERICENTER":269.5227,"MEAN_ANOMALY":90.5548,"EPHEMERIS_TYPE":0,"CLASSIFICATION_TYPE":"U","NORAD_CAT_ID":64812,"ELEMENT_SET_NO":999,"REV_AT_EPOCH":3650,"BSTAR":0.00015232,"MEAN_MOTION_DOT":1.725e-5,"MEAN_MOTION_DDOT":0}]
